OBJECT_NAME,OBJECT_ID,EPOCH,MEAN_MOTION,ECCENTRICITY,INCLINATION,RA_OF_ASC_NODE,ARG_OF_PERICENTER,MEAN_ANOMALY,EPHEMERIS_TYPE,CLASSIFICATION_TYPE,NORAD_CAT_ID,ELEMENT_SET_NO,REV_AT_EPOCH,BSTAR,MEAN_MOTION_DOT,MEAN_MOTION_DDOT
COSMOS 2534 (758),2019-030A,2026-07-10T03:03:06.483168,2.13102136,.00135098,64.3705,191.8439,274.9524,182.9689,0,U,44299,999,5541,0,.122E-5,0
BEIDOU-3 IGSO-2 (C39),2019-035A,2026-07-10T19:18:17.836704,1.00258870,.0039621,55.2507,158.6561,216.3018,322.0982,0,U,44337,999,2590,0,-.93E-6,0
GPS BIII-2  (PRN 18),2019-056A,2026-07-09T20:09:11.840832,2.00569870,.00632111,55.6250,330.2434,198.0806,346.0647,0,U,44506,999,5052,0,-.79E-6,0
BEIDOU-3 M24 (C46),2019-061A,2026-07-10T07:57:18.907776,1.86229274,.00085848,54.3976,181.9474,359.5842,0.4221,0,U,44542,999,4622,0,.11E-5,0
BEIDOU-3 M23 (C45),2019-061B,2026-07-08T10:30:33.647616,1.86227401,.00058609,54.3960,181.9796,339.6838,102.2392,0,U,44543,999,4619,0,.122E-5,0
EUTELSAT 5 WEST B (EGNOS/PRN 121),2019-067A,2026-07-11T04:10:38.605152,1.00271352,.0003003,0.0632,349.2671,122.7689,234.7046,0,U,44624,999,2467,0,-.35E-6,0
BEIDOU-3 M22 (C44),2019-078A,2026-07-10T04:07:10.286112,1.86227486,.00058553,53.9138,299.0194,49.9813,310.0922,0,U,44793,999,4507,0,-.64E-6,0
BEIDOU-3 M21 (C43),2019-078B,2026-07-08T03:55:41.277216,1.86228045,.00037906,53.8889,299.0507,48.5315,311.5256,0,U,44794,999,4504,0,-.63E-6,0
COSMOS 2544 (759),2019-088A,2026-07-10T11:49:03.290880,2.13103014,.0012328,65.5775,72.9536,255.3025,104.6227,0,U,44850,999,5121,0,-.23E-6,0
BEIDOU-3 M19 (C41),2019-090A,2026-07-09T06:25:15.373920,1.86231620,.00169841,56.5775,62.0617,297.5653,280.0700,0,U,44864,999,4464,0,-.47E-6,0
BEIDOU-3 M20 (C42),2019-090B,2026-07-11T05:29:31.109856,1.86231401,.0014749,56.5806,62.0316,312.6132,229.5496,0,U,44865,999,4466,0,-.44E-6,0
BEIDOU-3 G2 (C60),2020-017A,2026-07-11T01:57:42.348096,1.00269690,.0002099,2.9096,47.6644,58.8784,291.9330,0,U,45344,999,2349,0,-.135E-5,0
COSMOS 2545 (760),2020-018A,2026-07-07T20:55:22.502208,2.13102711,.00092133,64.3418,311.6924,230.0449,129.8870,0,U,45358,999,4910,0,-.52E-6,0
BEIDOU-3 G3 (C61),2020-040A,2026-07-11T02:06:26.510976,1.00266089,.0001791,2.5022,67.4780,328.9601,34.6479,0,U,45807,999,2231,0,-.348E-5,0
GPS BIII-3  (PRN 23),2020-041A,2026-07-10T21:56:27.928896,2.00557816,.0064939,56.6845,28.0242,204.5949,332.7705,0,U,45854,999,4451,0,-.52E-6,0
GALAXY 30 (WAAS/PRN 135),2020-056C,2026-07-11T05:32:17.642400,1.00270557,.0001942,0.0285,42.6171,72.7748,131.8212,0,U,46114,999,2153,0,0,0
COSMOS 2547 (705K),2020-075A,2026-07-08T12:44:16.154592,2.13100166,.0009456,64.6013,191.7631,239.7730,120.1659,0,U,46805,999,4436,0,.126E-5,0
GPS BIII-4  (PRN 14),2020-078A,2026-07-10T22:45:01.445760,2.00564814,.0074445,53.9778,209.8151,207.7078,331.1707,0,U,46826,999,4198,0,.107E-5,0
GPS BIII-5  (PRN 11),2021-054A,2026-07-11T02:47:22.060320,2.00567226,.0026363,55.1622,331.4983,228.5416,258.2089,0,U,48859,999,3723,0,-.85E-6,0
QZS-1R (QZSS/PRN 196),2021-096A,2026-07-10T14:11:14.484768,1.00246773,.0754836,37.5070,79.2376,272.1561,282.0570,0,U,49336,999,1724,0,-.288E-5,0
GSAT0223 (GALILEO 27),2021-116A,2026-07-09T20:59:25.855584,1.70475927,.0002356,57.1531,341.0636,194.9735,168.6501,0,U,49809,999,2857,0,-.78E-6,0
GSAT0224 (GALILEO 28),2021-116B,2026-07-10T06:33:55.425024,1.70475962,.000179,57.1533,341.0513,180.2049,180.8962,0,U,49810,999,2860,0,-.8E-6,0
COSMOS 2557 (706K),2022-075A,2026-07-07T06:53:27.537792,2.13102499,.0010602,64.2858,313.7776,272.5991,87.2916,0,U,52984,999,3114,0,-.5E-6,0
COSMOS 2559 (707K),2022-130A,2026-07-10T09:23:56.613408,2.13101629,.0013013,64.2561,313.7506,180.5020,179.5030,0,U,54031,999,2918,0,-.62E-6,0
COSMOS 2564 (761),2022-161A,2026-07-10T05:38:06.593856,2.13101971,.00122536,64.7436,191.9466,225.0642,134.8693,0,U,54377,999,2812,0,.122E-5,0
GPS BIII-6  (PRN 28),2023-009A,2026-07-10T03:18:52.490592,2.00569891,.00062095,55.1237,147.6170,320.5296,218.5554,0,U,55268,999,2570,0,.48E-6,0
BEIDOU-3 G4 (C62),2023-066A,2026-07-11T04:26:38.515200,1.00273896,.0004866,0.4640,337.6664,188.1067,330.0220,0,U,56564,999,1163,0,-.273E-5,0
NVS-01 (IRNSS-1J),2023-076A,2026-07-11T00:29:11.188896,1.00266650,.0003504,2.1122,243.2830,7.3308,175.1235,0,U,56759,999,1135,0,-.326E-5,0
COSMOS 2569 (703K),2023-114A,2026-07-08T08:52:52.993056,2.13103724,.0009907,65.3140,71.9064,296.3433,63.6161,0,U,57517,999,2271,0,-.24E-6,0
BEIDOU-3 M28 (C50),2023-207A,2026-07-10T22:12:40.180320,1.86229630,.0002543,55.7737,61.5024,2.6730,357.3924,0,U,58654,999,1728,0,-.47E-6,0
BEIDOU-3 M26 (C48),2023-207B,2026-07-10T17:21:03.631680,1.86229637,.0002139,55.7759,61.4958,324.4555,35.5938,0,U,58655,999,1726,0,-.47E-6,0
